[{"OBJECT_NAME":"CZ-2D R/B","OBJECT_ID":"2005-024B","EPOCH":"2026-03-04T12:19:02.320320","MEAN_MOTION":15.59604071,"ECCENTRICITY":0.00066639,"INCLINATION":97.3592,"RA_OF_ASC_NODE":78.4707,"ARG_OF_PERICENTER":60.5241,"MEAN_ANOMALY":299.668,"EPHEMERIS_TYPE":0,"CLASSIFICATION_TYPE":"U","NORAD_CAT_ID":28738,"ELEMENT_SET_NO":999,"REV_AT_EPOCH":13897,"BSTAR":0.00069164709,"MEAN_MOTION_DOT":0.00055259,"MEAN_MOTION_DDOT":0},{"OBJECT_NAME":"ALOS (DAICHI)","OBJECT_ID":"2006-002A","EPOCH":"2026-03-04T11:09:54.597600","MEAN_MOTION":14.69791465,"ECCENTRICITY":0.00011165,"INCLINATION":98.1209,"RA_OF_ASC_NODE":19.4472,"ARG_OF_PERICENTER":51.1847,"MEAN_ANOMALY":308.9458,"EPHEMERIS_TYPE":0,"CLASSIFICATION_TYPE":"U","NORAD_CAT_ID":28931,"ELEMENT_SET_NO":999,"REV_AT_EPOCH":7271,"BSTAR":0.00037616477,"MEAN_MOTION_DOT":2.196e-5,"MEAN_MOTION_DDOT":0},{"OBJECT_NAME":"H-2A R/B","OBJECT_ID":"2006-002B","EPOCH":"2026-03-04T09:30:17.594208","MEAN_MOTION":15.1628586,"ECCENTRICITY":0.0051848,"INCLINATION":98.2401,"RA_OF_ASC_NODE":209.9655,"ARG_OF_PERICENTER":259.2061,"MEAN_ANOMALY":100.3331,"EPHEMERIS_TYPE":0,"CLASSIFICATION_TYPE":"U","NORAD_CAT_ID":28932,"ELEMENT_SET_NO":999,"REV_AT_EPOCH":9363,"BSTAR":0.00077274126,"MEAN_MOTION_DOT":0.00015424,"MEAN_MOTION_DDOT":0},{"OBJECT_NAME":"RESURS-DK 1","OBJECT_ID":"2006-021A","EPOCH":"2026-03-04T12:14:22.081056","MEAN_MOTION":15.12702247,"ECCENTRICITY":0.00024124,"INCLINATION":69.9304,"RA_OF_ASC_NODE":250.4226,"ARG_OF_PERICENTER":165.2487,"MEAN_ANOMALY":194.875,"EPHEMERIS_TYPE":0,"CLASSIFICATION_TYPE":"U","NORAD_CAT_ID":29228,"ELEMENT_SET_NO":999,"REV_AT_EPOCH":8674,"BSTAR":0.00022310866,"MEAN_MOTION_DOT":3.809e-5,"MEAN_MOTION_DDOT":0},{"OBJECT_NAME":"CZ-4B R/B","OBJECT_ID":"2006-046C","EPOCH":"2026-03-04T03:12:53.123616","MEAN_MOTION":15.16836244,"ECCENTRICITY":0.00317265,"INCLINATION":97.5602,"RA_OF_ASC_NODE":108.0574,"ARG_OF_PERICENTER":287.508,"MEAN_ANOMALY":72.2686,"EPHEMERIS_TYPE":0,"CLASSIFICATION_TYPE":"U","NORAD_CAT_ID":29507,"ELEMENT_SET_NO":999,"REV_AT_EPOCH":5920,"BSTAR":0.00036991766,"MEAN_MOTION_DOT":7.3e-5,"MEAN_MOTION_DDOT":0},{"OBJECT_NAME":"CZ-2C R/B","OBJECT_ID":"2007-010B","EPOCH":"2026-03-04T07:13:45.953184","MEAN_MOTION":14.20244085,"ECCENTRICITY":0.00580445,"INCLINATION":98.3977,"RA_OF_ASC_NODE":176.8503,"ARG_OF_PERICENTER":310.5668,"MEAN_ANOMALY":49.0465,"EPHEMERIS_TYPE":0,"CLASSIFICATION_TYPE":"U","NORAD_CAT_ID":31114,"ELEMENT_SET_NO":999,"REV_AT_EPOCH":97895,"BSTAR":0.0001047667,"MEAN_MOTION_DOT":1.86e-6,"MEAN_MOTION_DDOT":0},{"OBJECT_NAME":"COSMO-SKYMED 1","OBJECT_ID":"2007-023A","EPOCH":"2026-03-04T13:59:18.304800","MEAN_MOTION":14.96487875,"ECCENTRICITY":8.344e-5,"INCLINATION":97.886,"RA_OF_ASC_NODE":254.5744,"ARG_OF_PERICENTER":94.3084,"MEAN_ANOMALY":265.8232,"EPHEMERIS_TYPE":0,"CLASSIFICATION_TYPE":"U","NORAD_CAT_ID":31598,"ELEMENT_SET_NO":999,"REV_AT_EPOCH":1414,"BSTAR":0.00048150408,"MEAN_MOTION_DOT":5.41e-5,"MEAN_MOTION_DDOT":0},{"OBJECT_NAME":"COSMOS 2428","OBJECT_ID":"2007-029A","EPOCH":"2026-03-04T12:11:54.669696","MEAN_MOTION":14.12944763,"ECCENTRICITY":0.00088436,"INCLINATION":70.9424,"RA_OF_ASC_NODE":214.2185,"ARG_OF_PERICENTER":282.5735,"MEAN_ANOMALY":77.4396,"EPHEMERIS_TYPE":0,"CLASSIFICATION_TYPE":"U","NORAD_CAT_ID":31792,"ELEMENT_SET_NO":999,"REV_AT_EPOCH":96336,"BSTAR":6.1425717e-5,"MEAN_MOTION_DOT":6.7e-7,"MEAN_MOTION_DDOT":0},{"OBJECT_NAME":"SL-16 R/B","OBJECT_ID":"2007-029B","EPOCH":"2026-03-04T11:23:39.841152","MEAN_MOTION":14.14833777,"ECCENTRICITY":0.00023974,"INCLINATION":70.9756,"RA_OF_ASC_NODE":183.3458,"ARG_OF_PERICENTER":277.7984,"MEAN_ANOMALY":151.1636,"EPHEMERIS_TYPE":0,"CLASSIFICATION_TYPE":"U","NORAD_CAT_ID":31793,"ELEMENT_SET_NO":999,"REV_AT_EPOCH":96463,"BSTAR":-4.2179951e-5,"MEAN_MOTION_DOT":-1.29e-6,"MEAN_MOTION_DDOT":0},{"OBJECT_NAME":"KORONAS-FOTON","OBJECT_ID":"2009-003A","EPOCH":"2026-03-04T13:50:58.979328","MEAN_MOTION":15.43184144,"ECCENTRICITY":0.00108836,"INCLINATION":82.428,"RA_OF_ASC_NODE":281.194,"ARG_OF_PERICENTER":166.9286,"MEAN_ANOMALY":193.2246,"EPHEMERIS_TYPE":0,"CLASSIFICATION_TYPE":"U","NORAD_CAT_ID":33504,"ELEMENT_SET_NO":999,"REV_AT_EPOCH":94495,"BSTAR":0.00037963712,"MEAN_MOTION_DOT":0.00016914,"MEAN_MOTION_DDOT":0},{"OBJECT_NAME":"CZ-2C R/B","OBJECT_ID":"2011-030B","EPOCH":"2026-03-04T11:42:50.785056","MEAN_MOTION":14.8119867,"ECCENTRICITY":0.00528999,"INCLINATION":97.8536,"RA_OF_ASC_NODE":20.8555,"ARG_OF_PERICENTER":9.0193,"MEAN_ANOMALY":106.682,"EPHEMERIS_TYPE":0,"CLASSIFICATION_TYPE":"U","NORAD_CAT_ID":37731,"ELEMENT_SET_NO":999,"REV_AT_EPOCH":78932,"BSTAR":0.00035542733,"MEAN_MOTION_DOT":2.779e-5,"MEAN_MOTION_DDOT":0},{"OBJECT_NAME":"H-2A R/B","OBJECT_ID":"2012-025E","EPOCH":"2026-03-04T12:12:18.188640","MEAN_MOTION":14.95112142,"ECCENTRICITY":0.00437755,"INCLINATION":98.4719,"RA_OF_ASC_NODE":30.1396,"ARG_OF_PERICENTER":331.4913,"MEAN_ANOMALY":28.3912,"EPHEMERIS_TYPE":0,"CLASSIFICATION_TYPE":"U","NORAD_CAT_ID":38341,"ELEMENT_SET_NO":999,"REV_AT_EPOCH":74744,"BSTAR":0.00052807693,"MEAN_MOTION_DOT":5.834e-5,"MEAN_MOTION_DDOT":0},{"OBJECT_NAME":"SHIJIAN-16 (SJ-16)","OBJECT_ID":"2013-057A","EPOCH":"2026-03-04T14:25:32.325312","MEAN_MOTION":14.92313999,"ECCENTRICITY":0.00156488,"INCLINATION":74.9733,"RA_OF_ASC_NODE":194.72,"ARG_OF_PERICENTER":125.9336,"MEAN_ANOMALY":234.3307,"EPHEMERIS_TYPE":0,"CLASSIFICATION_TYPE":"U","NORAD_CAT_ID":39358,"ELEMENT_SET_NO":999,"REV_AT_EPOCH":67074,"BSTAR":0.00021731706,"MEAN_MOTION_DOT":2.197e-5,"MEAN_MOTION_DDOT":0},{"OBJECT_NAME":"SL-4 R/B","OBJECT_ID":"2014-021B","EPOCH":"2026-03-04T05:45:04.526208","MEAN_MOTION":15.38969611,"ECCENTRICITY":0.00979685,"INCLINATION":51.6089,"RA_OF_ASC_NODE":3.8618,"ARG_OF_PERICENTER":83.111,"MEAN_ANOMALY":278.1008,"EPHEMERIS_TYPE":0,"CLASSIFICATION_TYPE":"U","NORAD_CAT_ID":39679,"ELEMENT_SET_NO":999,"REV_AT_EPOCH":65543,"BSTAR":0.00052582601,"MEAN_MOTION_DOT":0.00023997,"MEAN_MOTION_DDOT":0},{"OBJECT_NAME":"ALOS-2","OBJECT_ID":"2014-029A","EPOCH":"2026-03-04T13:53:27.812832","MEAN_MOTION":14.79482663,"ECCENTRICITY":0.00015193,"INCLINATION":97.9205,"RA_OF_ASC_NODE":162.2508,"ARG_OF_PERICENTER":97.9773,"MEAN_ANOMALY":262.1611,"EPHEMERIS_TYPE":0,"CLASSIFICATION_TYPE":"U","NORAD_CAT_ID":39766,"ELEMENT_SET_NO":999,"REV_AT_EPOCH":63611,"BSTAR":0.00057891062,"MEAN_MOTION_DOT":4.276e-5,"MEAN_MOTION_DDOT":0},{"OBJECT_NAME":"YAOGAN-29","OBJECT_ID":"2015-069A","EPOCH":"2026-03-04T14:22:43.358016","MEAN_MOTION":14.82988418,"ECCENTRICITY":0.00022297,"INCLINATION":98.0146,"RA_OF_ASC_NODE":92.0148,"ARG_OF_PERICENTER":43.8125,"MEAN_ANOMALY":316.3265,"EPHEMERIS_TYPE":0,"CLASSIFICATION_TYPE":"U","NORAD_CAT_ID":41038,"ELEMENT_SET_NO":999,"REV_AT_EPOCH":55512,"BSTAR":4.9663782e-5,"MEAN_MOTION_DOT":3.49e-6,"MEAN_MOTION_DDOT":0}]
