CZ-2D R/B               
1 28738U 05024B   26063.51322130  .00055259  00000+0  69165-3 0  9998
2 28738  97.3592  78.4707 0006663  60.5241 299.6680 15.59604071138973
ALOS (DAICHI)           
1 28931U 06002A   26063.46521525  .00002196  00000+0  37616-3 0  9991
2 28931  98.1209  19.4472 0001116  51.1847 308.9458 14.69791465 72712
H-2A R/B                
1 28932U 06002B   26063.39603697  .00015424  00000+0  77274-3 0  9997
2 28932  98.2401 209.9655 0051848 259.2061 100.3331 15.16285860 93631
RESURS-DK 1             
1 29228U 06021A   26063.50997779  .00003809  00000+0  22311-3 0  9993
2 29228  69.9304 250.4226 0002412 165.2487 194.8750 15.12702247 86749
CZ-4B R/B               
1 29507U 06046C   26063.13394819  .00007300  00000+0  36992-3 0  9995
2 29507  97.5602 108.0574 0031726 287.5080  72.2686 15.16836244 59205
CZ-2C R/B               
1 31114U 07010B   26063.30122631  .00000186  00000+0  10477-3 0  9999
2 31114  98.3977 176.8503 0058044 310.5668  49.0465 14.20244085978951
COSMO-SKYMED 1          
1 31598U 07023A   26063.58285075  .00005410  00000+0  48150-3 0  9995
2 31598  97.8860 254.5744 0000834  94.3084 265.8232 14.96487875 14147
COSMOS 2428             
1 31792U 07029A   26063.50827164  .00000067  00000+0  61426-4 0  9995
2 31792  70.9424 214.2185 0008843 282.5735  77.4396 14.12944763963362
SL-16 R/B               
1 31793U 07029B   26063.47476668 -.00000129  00000+0 -42180-4 0  9998
2 31793  70.9756 183.3458 0002397 277.7984 151.1636 14.14833777964632
KORONAS-FOTON           
1 33504U 09003A   26063.57707152  .00016914  00000+0  37964-3 0  9990
2 33504  82.4280 281.1940 0010883 166.9286 193.2246 15.43184144944957
CZ-2C R/B               
1 37731U 11030B   26063.48808779  .00002779  00000+0  35543-3 0  9991
2 37731  97.8536  20.8555 0052899   9.0193 106.6820 14.81198670789328
H-2A R/B                
1 38341U 12025E   26063.50854385  .00005834  00000+0  52808-3 0  9999
2 38341  98.4719  30.1396 0043775 331.4913  28.3912 14.95112142747442
SHIJIAN-16 (SJ-16)      
1 39358U 13057A   26063.60106858  .00002197  00000+0  21732-3 0  9991
2 39358  74.9733 194.7200 0015648 125.9336 234.3307 14.92313999670745
SL-4 R/B                
1 39679U 14021B   26063.23963572  .00023997  00000+0  52583-3 0  9991
2 39679  51.6089   3.8618 0097968  83.1110 278.1008 15.38969611655432
ALOS-2                  
1 39766U 14029A   26063.57879413  .00004276  00000+0  57891-3 0  9999
2 39766  97.9205 162.2508 0001519  97.9773 262.1611 14.79482663636113
YAOGAN-29               
1 41038U 15069A   26063.59911294  .00000349  00000+0  49664-4 0  9992
2 41038  98.0146  92.0148 0002229  43.8125 316.3265 14.82988418555125
